{
  "norad_id": 63037,
  "name": "STARLINK-32810",
  "history": [
    {
      "epoch": "2026-03-28T11:51:28.494720Z",
      "apogee_km": 476.18467680471986,
      "perigee_km": 474.1618537468212,
      "latitude_deg": 1.6840543792280063e-05,
      "longitude_deg": 167.15506150556294,
      "height_km": 475.6830268930926,
      "semi_major_axis_km": 6853.310265275771,
      "eccentricity": 0.00014758,
      "inclination_deg": 53.1609,
      "raan_deg": 170.9375,
      "arg_perigee_deg": 67.4238,
      "mean_anomaly_deg": 292.6919,
      "mean_motion_rev_day": 15.30214001
    }
  ]
}