{"fetched_at":"2026-03-29T02:12:04Z","count":15717,"tles":[{"name":"STARLINK-32810","line1":"1 63037U 25034J   26087.49407980  .00030399  00000+0  10338-2 0  9997","line2":"2 63037  53.1609 170.9375 0001475  67.4238 292.6919 15.30214001 61961","category":"Starlink"}]}